HXMT (HUIYAN)           
1 42758U 17034A   26067.98776583  .00008761  00000+0  43514-3 0  9996
2 42758  43.0155  20.5752 0032845 231.7210 128.0682 15.17452919482437
SAOCOM 1A               
1 43641U 18076A   26067.95034736  .00001432  00000+0  18640-3 0  9999
2 43641  97.8891 256.1332 0001322  84.0453 276.0911 14.82171683401255
H-2A R/B                
1 43682U 18084L   26067.56429336  .00029350  00000+0  69756-3 0  9997
2 43682  98.8730 284.7117 0025554  29.1244 331.1417 15.41293440405601
SAOCOM 1B               
1 46265U 20059A   26065.95626301  .00001349  00000+0  17595-3 0  9996
2 46265  97.8885 253.2654 0001504  81.2285 278.9098 14.82173062298346
CSS (TIANHE)            
1 48274U 21035A   26067.81967659  .00029275  00000+0  34617-3 0  9996
2 48274  41.4664 213.4556 0006998 268.3248  91.6789 15.60610742277472
COSMOS 2550             
1 48865U 21056A   26067.47400841 -.00000192  00000+0 -13338-7 0  9992
2 48865  67.1451  44.6088 0008369 269.6014  90.4182 15.33829151263273
CZ-2C R/B               
1 52794U 22058K   26067.09787482  .00047047  00000+0  68669-3 0  9999
2 52794  50.1897 326.4776 0042176 194.0797 165.9000 15.54100851209889
CZ-2C R/B               
1 54039U 22132E   26067.92315633  .00051857  00000+0  59228-3 0  9998
2 54039  97.2971  71.2164 0020651  93.9073 266.4546 15.61773352190254
GSLV R/B                
1 54149U 22138AN  26067.78484296  .00004221  00000+0  36481-3 0  9991
2 54149  87.3877 166.6651 0022909 149.8925 210.3629 14.96767666183795
XRISM                   
1 57800U 23137A   26067.98024934  .00007684  00000+0  43682-3 0  9996
2 57800  31.0015 288.2532 0008039  31.3997 328.7120 15.11493622137686
ACS3                    
1 59588U 24077B   26067.84994514  .00035880  00000+0  28802-1 0  9994
2 59588  97.2078   9.1508 0059005  78.9295 281.8497 13.89586973 94081
SZ-21 MODULE            
1 66515U 25246C   26067.73638915  .00047754  00000+0  41113-3 0  9994
2 66515  41.4736 209.2286 0001365 296.9264  63.1439 15.68463397 17929
